{"type": "FeatureCollection", "features": [ {"type": "Feature", "properties": {"norad_id": 42741, "name": "EUTELSAT 172B", "group": "eutelsat", "lat": -0.0009465353751750417, "lon": 179.45158570512302, "alt_km": 35785.699733547335, "timestamp": "2025-12-05T19:30:25.238831+00:00", "meta": {"OBJECT_NAME": "EUTELSAT 172B", "OBJECT_ID": "2017-029B", "EPOCH": "2025-12-05T05:57:18.318816", "MEAN_MOTION": 1.00271279, "ECCENTRICITY": 1.618e-05, "INCLINATION": 0.011, "RA_OF_ASC_NODE": 82.7014, "ARG_OF_PERICENTER": 139.0449, "MEAN_ANOMALY": 113.8871, "EPHEMERIS_TYPE": 0, "CLASSIFICATION_TYPE": "U", "NORAD_CAT_ID": 42741, "ELEMENT_SET_NO": 999, "REV_AT_EPOCH": 3178, "BSTAR": 0, "MEAN_MOTION_DOT": 6e-08, "MEAN_MOTION_DDOT": 0}, "tle": {"line1": "1 42741U 17029B   25339.24812869  .00000006  00000+0  00000+0 0  9993", "line2": "2 42741   0.0110  82.7014 0000161 139.0449 113.8871  1.00271279 31789"}}, "geometry": {"type": "Point", "coordinates": [179.45158570512302, -0.0009465353751750417]}}, {"type": "Feature", "properties": {"norad_id": 44334, "name": "EUTELSAT 7C", "group": "eutelsat", "lat": 0.010982568644011745, "lon": 14.461009025563465, "alt_km": 35797.18739808241, "timestamp": "2025-12-05T19:30:25.238844+00:00", "meta": {"OBJECT_NAME": "EUTELSAT 7C", "OBJECT_ID": "2019-034B", "EPOCH": "2025-12-05T03:27:25.181280", "MEAN_MOTION": 1.00269222, "ECCENTRICITY": 0.00034467, "INCLINATION": 0.0759, "RA_OF_ASC_NODE": 181.5889, "ARG_OF_PERICENTER": 57.0466, "MEAN_ANOMALY": 254.4093, "EPHEMERIS_TYPE": 0, "CLASSIFICATION_TYPE": "U", "NORAD_CAT_ID": 44334, "ELEMENT_SET_NO": 999, "REV_AT_EPOCH": 489, "BSTAR": 0, "MEAN_MOTION_DOT": 6e-07, "MEAN_MOTION_DDOT": 0}, "tle": {"line1": "1 44334U 19034B   25339.14404145  .00000060  00000+0  00000+0 0  9994", "line2": "2 44334   0.0759 181.5889 0003446  57.0466 254.4093  1.00269222  4898"}}, "geometry": {"type": "Point", "coordinates": [14.461009025563465, 0.010982568644011745]}}, {"type": "Feature", "properties": {"norad_id": 44624, "name": "EUTELSAT 5 WEST B", "group": "eutelsat", "lat": 0.04872430175950194, "lon": 2.496280976886064, "alt_km": 35791.136973174274, "timestamp": "2025-12-05T19:30:25.238856+00:00", "meta": {"OBJECT_NAME": "EUTELSAT 5 WEST B", "OBJECT_ID": "2019-067A", "EPOCH": "2025-12-05T03:24:03.004416", "MEAN_MOTION": 1.00270143, "ECCENTRICITY": 0.00035898, "INCLINATION": 0.0687, "RA_OF_ASC_NODE": 331.84, "ARG_OF_PERICENTER": 282.9691, "MEAN_ANOMALY": 225.4129, "EPHEMERIS_TYPE": 0, "CLASSIFICATION_TYPE": "U", "NORAD_CAT_ID": 44624, "ELEMENT_SET_NO": 999, "REV_AT_EPOCH": 2249, "BSTAR": 0, "MEAN_MOTION_DOT": -3e-07, "MEAN_MOTION_DDOT": 0}, "tle": {"line1": "1 44624U 19067A   25339.14170144 -.00000030  00000+0  00000+0 0  9999", "line2": "2 44624   0.0687 331.8400 0003589 282.9691 225.4129  1.00270143 22494"}}, "geometry": {"type": "Point", "coordinates": [2.496280976886064, 0.04872430175950194]}}, {"type": "Feature", "properties": {"norad_id": 45027, "name": "EUTELSAT KONNECT", "group": "eutelsat", "lat": -0.04703126108273074, "lon": 14.672596223097162, "alt_km": 35788.20939692023, "timestamp": "2025-12-05T19:30:25.238868+00:00", "meta": {"OBJECT_NAME": "EUTELSAT KONNECT", "OBJECT_ID": "2020-005B", "EPOCH": "2025-12-04T08:37:30.489888", "MEAN_MOTION": 1.00272344, "ECCENTRICITY": 0.0001642, "INCLINATION": 0.0692, "RA_OF_ASC_NODE": 100.602, "ARG_OF_PERICENTER": 164.0721, "MEAN_ANOMALY": 305.3307, "EPHEMERIS_TYPE": 0, "CLASSIFICATION_TYPE": "U", "NORAD_CAT_ID": 45027, "ELEMENT_SET_NO": 999, "REV_AT_EPOCH": 2237, "BSTAR": 0, "MEAN_MOTION_DOT": 6.5e-07, "MEAN_MOTION_DDOT": 0}, "tle": {"line1": "1 45027U 20005B   25338.35938067  .00000065  00000+0  00000+0 0  9996", "line2": "2 45027   0.0692 100.6020 0001642 164.0721 305.3307  1.00272344 22378"}}, "geometry": {"type": "Point", "coordinates": [14.672596223097162, -0.04703126108273074]}}, {"type": "Feature", "properties": {"norad_id": 49056, "name": "EUTELSAT QUANTUM", "group": "eutelsat", "lat": 0.02752826410642061, "lon": 55.17703069030131, "alt_km": 35799.91211848562, "timestamp": "2025-12-05T19:30:25.238880+00:00", "meta": {"OBJECT_NAME": "EUTELSAT QUANTUM", "OBJECT_ID": "2021-069B", "EPOCH": "2025-12-05T02:45:38.523744", "MEAN_MOTION": 1.0026976, "ECCENTRICITY": 0.0003686, "INCLINATION": 0.0221, "RA_OF_ASC_NODE": 30.9288, "ARG_OF_PERICENTER": 235.6276, "MEAN_ANOMALY": 256.7359, "EPHEMERIS_TYPE": 0, "CLASSIFICATION_TYPE": "U", "NORAD_CAT_ID": 49056, "ELEMENT_SET_NO": 999, "REV_AT_EPOCH": 1598, "BSTAR": 0, "MEAN_MOTION_DOT": 1.38e-06, "MEAN_MOTION_DDOT": 0}, "tle": {"line1": "1 49056U 21069B   25339.11502921  .00000138  00000+0  00000+0 0  9995", "line2": "2 49056   0.0221  30.9288 0003686 235.6276 256.7359  1.00269760 15986"}}, "geometry": {"type": "Point", "coordinates": [55.17703069030131, 0.02752826410642061]}}, {"type": "Feature", "properties": {"norad_id": 53765, "name": "EUTELSAT KONNECT VHTS", "group": "eutelsat", "lat": -0.03842777540854623, "lon": 10.163905459112568, "alt_km": 35795.24998127898, "timestamp": "2025-12-05T19:30:25.238891+00:00", "meta": {"OBJECT_NAME": "EUTELSAT KONNECT VHTS", "OBJECT_ID": "2022-110A", "EPOCH": "2025-12-05T00:00:43.723584", "MEAN_MOTION": 1.00269392, "ECCENTRICITY": 0.00027793, "INCLINATION": 0.0617, "RA_OF_ASC_NODE": 107.5885, "ARG_OF_PERICENTER": 125.8234, "MEAN_ANOMALY": 203.528, "EPHEMERIS_TYPE": 0, "CLASSIFICATION_TYPE": "U", "NORAD_CAT_ID": 53765, "ELEMENT_SET_NO": 999, "REV_AT_EPOCH": 487, "BSTAR": 0, "MEAN_MOTION_DOT": 3e-07, "MEAN_MOTION_DDOT": 0}, "tle": {"line1": "1 53765U 22110A   25339.00050606  .00000030  00000+0  00000+0 0  9992", "line2": "2 53765   0.0617 107.5885 0002779 125.8234 203.5280  1.00269392  4877"}}, "geometry": {"type": "Point", "coordinates": [10.163905459112568, -0.03842777540854623]}}, {"type": "Feature", "properties": {"norad_id": 54048, "name": "EUTELSAT HOTBIRD 13F", "group": "eutelsat", "lat": 0.06731253767266557, "lon": 20.464340655959766, "alt_km": 35778.09866460045, "timestamp": "2025-12-05T19:30:25.238903+00:00", "meta": {"OBJECT_NAME": "EUTELSAT HOTBIRD 13F", "OBJECT_ID": "2022-134A", "EPOCH": "2025-12-05T03:29:10.013856", "MEAN_MOTION": 1.00270989, "ECCENTRICITY": 0.00021852, "INCLINATION": 0.0493, "RA_OF_ASC_NODE": 292.9027, "ARG_OF_PERICENTER": 59.9917, "MEAN_ANOMALY": 146.6039, "EPHEMERIS_TYPE": 0, "CLASSIFICATION_TYPE": "U", "NORAD_CAT_ID": 54048, "ELEMENT_SET_NO": 999, "REV_AT_EPOCH": 1143, "BSTAR": 0, "MEAN_MOTION_DOT": 9.9e-07, "MEAN_MOTION_DDOT": 0}, "tle": {"line1": "1 54048U 22134A   25339.14525479  .00000099  00000+0  00000+0 0  9998", "line2": "2 54048   0.0493 292.9027 0002185  59.9917 146.6039  1.00270989 11430"}}, "geometry": {"type": "Point", "coordinates": [20.464340655959766, 0.06731253767266557]}}, {"type": "Feature", "properties": {"norad_id": 54225, "name": "EUTELSAT HOTBIRD 13G", "group": "eutelsat", "lat": 0.04056781886143953, "lon": 20.439521027623375, "alt_km": 35794.44716774828, "timestamp": "2025-12-05T19:30:25.238914+00:00", "meta": {"OBJECT_NAME": "EUTELSAT HOTBIRD 13G", "OBJECT_ID": "2022-146A", "EPOCH": "2025-12-05T03:29:10.013856", "MEAN_MOTION": 1.00270059, "ECCENTRICITY": 0.00019392, "INCLINATION": 0.0468, "RA_OF_ASC_NODE": 236.4892, "ARG_OF_PERICENTER": 311.0652, "MEAN_ANOMALY": 311.9375, "EPHEMERIS_TYPE": 0, "CLASSIFICATION_TYPE": "U", "NORAD_CAT_ID": 54225, "ELEMENT_SET_NO": 999, "REV_AT_EPOCH": 552, "BSTAR": 0, "MEAN_MOTION_DOT": 9.9e-07, "MEAN_MOTION_DDOT": 0}, "tle": {"line1": "1 54225U 22146A   25339.14525479  .00000099  00000+0  00000+0 0  9998", "line2": "2 54225   0.0468 236.4892 0001939 311.0652 311.9375  1.00270059  5527"}}, "geometry": {"type": "Point", "coordinates": [20.439521027623375, 0.04056781886143953]}}, {"type": "Feature", "properties": {"norad_id": 54259, "name": "EUTELSAT 10B", "group": "eutelsat", "lat": -0.03553243788632439, "lon": 17.43923482323519, "alt_km": 35791.937271877854, "timestamp": "2025-12-05T19:30:25.238926+00:00", "meta": {"OBJECT_NAME": "EUTELSAT 10B", "OBJECT_ID": "2022-157A", "EPOCH": "2025-12-05T00:45:38.753856", "MEAN_MOTION": 1.00267429, "ECCENTRICITY": 0.00011529, "INCLINATION": 0.0622, "RA_OF_ASC_NODE": 103.5891, "ARG_OF_PERICENTER": 79.7033, "MEAN_ANOMALY": 272.2132, "EPHEMERIS_TYPE": 0, "CLASSIFICATION_TYPE": "U", "NORAD_CAT_ID": 54259, "ELEMENT_SET_NO": 999, "REV_AT_EPOCH": 1108, "BSTAR": 0, "MEAN_MOTION_DOT": 8.1e-07, "MEAN_MOTION_DDOT": 0}, "tle": {"line1": "1 54259U 22157A   25339.03169854  .00000081  00000+0  00000+0 0  9997", "line2": "2 54259   0.0622 103.5891 0001152  79.7033 272.2132  1.00267429 11082"}}, "geometry": {"type": "Point", "coordinates": [17.43923482323519, -0.03553243788632439]}}, {"type": "Feature", "properties": {"norad_id": 59346, "name": "EUTELSAT 36D", "group": "eutelsat", "lat": 0.040536465529953956, "lon": 43.313226418530135, "alt_km": 35787.01473471766, "timestamp": "2025-12-05T19:30:25.238938+00:00", "meta": {"OBJECT_NAME": "EUTELSAT 36D", "OBJECT_ID": "2024-059A", "EPOCH": "2025-12-05T05:57:21.456864", "MEAN_MOTION": 1.00269917, "ECCENTRICITY": 5.918e-05, "INCLINATION": 0.022, "RA_OF_ASC_NODE": 350.7928, "ARG_OF_PERICENTER": 311.4823, "MEAN_ANOMALY": 257.2279, "EPHEMERIS_TYPE": 0, "CLASSIFICATION_TYPE": "U", "NORAD_CAT_ID": 59346, "ELEMENT_SET_NO": 999, "REV_AT_EPOCH": 620, "BSTAR": 0, "MEAN_MOTION_DOT": 0, "MEAN_MOTION_DDOT": 0}, "tle": {"line1": "1 59346U 24059A   25339.24816501  .00000000  00000+0  00000+0 0  9994", "line2": "2 59346   0.0220 350.7928 0000591 311.4823 257.2279  1.00269917  6201"}}, "geometry": {"type": "Point", "coordinates": [43.313226418530135, 0.040536465529953956]}}]}